[Satellite]
VERSION=1.1
NAME=FALCON 9 DEB
NICKNAME=FALCON 9 DEB
TLE1=1 54213U 22141BJ  22314.80763784  .06593424  12197-4  43778-3 0  9999
TLE2=2 54213  53.2080  73.2843 0016809 229.1244 130.8349 16.39897288  2236
STATUS=0
